STARLINK-35781          
1 67110U 25299J   26004.91668981  .00007906  00000+0  14054-3 0  9990
2 67110  42.9995 176.3768 0001617 276.5075 296.0732 15.50562760  4482
STARLINK-35875          
1 67111U 25299K   26004.91668981  .00182924  00000+0  30628-2 0  9999
2 67111  42.9994 176.3829 0001696 268.4015 302.2857 15.50475633  4425
STARLINK-35906          
1 67112U 25299L   26004.91668981 -.00030043  00000+0 -50816-3 0  9998
2 67112  42.9995 176.3725 0001656 284.9882 289.5076 15.50582758  4420
STARLINK-35789          
1 67113U 25299M   26004.91668981  .00003846  00000+0  71377-4 0  9994
2 67113  42.9995 176.3669 0001560 278.8941 297.5212 15.50565328  4425
STARLINK-36180          
1 67114U 25299N   26004.91668981 -.00004643  00000+0 -73387-4 0  9996
2 67114  42.9996 176.3627 0001669 272.2558 306.0778 15.50569312  4535
STARLINK-35892          
1 67115U 25299P   26004.91668981 -.02059480  00000+0 -41307-1 0  9992
2 67115  42.9997 176.3596 0001411 271.0561 308.5107 15.49284583  4421
STARLINK-35738          
1 67116U 25299Q   26004.91668981  .00025450  00000+0  43826-3 0  9999
2 67116  42.9994 176.3536 0001604 272.1910 309.9635 15.50575831  4429
STARLINK-35674          
1 67117U 25299R   26004.91668981 -.02387020  00000+0 -60135-1 0  9998
2 67117  43.0003 176.4121 0001254 276.1597 281.7482 15.42677233  4326
STARLINK-35701          
1 67118U 25299S   26004.91668981 -.00027561  00000+0 -46556-3 0  9991
2 67118  42.9995 176.3439 0001525 278.2945 307.7052 15.50582282  4484
STARLINK-36179          
1 67119U 25299T   26004.91668981 -.02587687  00000+0 -63451-1 0  9995
2 67119  43.0003 176.3857 0001294 248.6224 320.1451 15.43778643  4533
STARLINK-36217          
1 67120U 25299U   26004.91668981  .00009691  00000+0  17091-3 0  9998
2 67120  42.9996 176.3388 0001575 271.2253 316.6938 15.50561529  4530
STARLINK-36124          
1 67121U 25299V   26004.91668981  .00034707  00000+0  59543-3 0  9993
2 67121  42.9996 176.3243 0001538 278.3496 315.3229 15.50548948  4536
