CCSDS_OMM_VERS = 2.0
CREATION_DATE  = 
ORIGINATOR     = 

OBJECT_NAME    = STARLINK-35781
OBJECT_ID      = 2025-299J
CENTER_NAME    = EARTH
REF_FRAME      = TEME
TIME_SYSTEM    = UTC
MEAN_ELEMENT_THEORY = SGP/SGP4

EPOCH          = 2026-01-04T22:00:01.999584
MEAN_MOTION    = 15.50562760
ECCENTRICITY   = .00016176
INCLINATION    = 42.9995
RA_OF_ASC_NODE = 176.3768
ARG_OF_PERICENTER = 276.5075
MEAN_ANOMALY   = 296.0732

EPHEMERIS_TYPE = 0
CLASSIFICATION_TYPE = U
NORAD_CAT_ID   = 67110
ELEMENT_SET_NO = 999
REV_AT_EPOCH   = 448
BSTAR          = .14053542E-3
MEAN_MOTION_DOT = .7906E-4
MEAN_MOTION_DDOT = 0

CCSDS_OMM_VERS = 2.0
CREATION_DATE  = 
ORIGINATOR     = 

OBJECT_NAME    = STARLINK-35875
OBJECT_ID      = 2025-299K
CENTER_NAME    = EARTH
REF_FRAME      = TEME
TIME_SYSTEM    = UTC
MEAN_ELEMENT_THEORY = SGP/SGP4

EPOCH          = 2026-01-04T22:00:01.999584
MEAN_MOTION    = 15.50475633
ECCENTRICITY   = .00016969
INCLINATION    = 42.9994
RA_OF_ASC_NODE = 176.3829
ARG_OF_PERICENTER = 268.4015
MEAN_ANOMALY   = 302.2857

EPHEMERIS_TYPE = 0
CLASSIFICATION_TYPE = U
NORAD_CAT_ID   = 67111
ELEMENT_SET_NO = 999
REV_AT_EPOCH   = 442
BSTAR          = .30627596E-2
MEAN_MOTION_DOT = .182924E-2
MEAN_MOTION_DDOT = 0

CCSDS_OMM_VERS = 2.0
CREATION_DATE  = 
ORIGINATOR     = 

OBJECT_NAME    = STARLINK-35906
OBJECT_ID      = 2025-299L
CENTER_NAME    = EARTH
REF_FRAME      = TEME
TIME_SYSTEM    = UTC
MEAN_ELEMENT_THEORY = SGP/SGP4

EPOCH          = 2026-01-04T22:00:01.999584
MEAN_MOTION    = 15.50582758
ECCENTRICITY   = .00016564
INCLINATION    = 42.9995
RA_OF_ASC_NODE = 176.3725
ARG_OF_PERICENTER = 284.9882
MEAN_ANOMALY   = 289.5076

EPHEMERIS_TYPE = 0
CLASSIFICATION_TYPE = U
NORAD_CAT_ID   = 67112
ELEMENT_SET_NO = 999
REV_AT_EPOCH   = 442
BSTAR          = -.50816268E-3
MEAN_MOTION_DOT = -.30043E-3
MEAN_MOTION_DDOT = 0

CCSDS_OMM_VERS = 2.0
CREATION_DATE  = 
ORIGINATOR     = 

OBJECT_NAME    = STARLINK-35789
OBJECT_ID      = 2025-299M
CENTER_NAME    = EARTH
REF_FRAME      = TEME
TIME_SYSTEM    = UTC
MEAN_ELEMENT_THEORY = SGP/SGP4

EPOCH          = 2026-01-04T22:00:01.999584
MEAN_MOTION    = 15.50565328
ECCENTRICITY   = .00015602
INCLINATION    = 42.9995
RA_OF_ASC_NODE = 176.3669
ARG_OF_PERICENTER = 278.8941
MEAN_ANOMALY   = 297.5212

EPHEMERIS_TYPE = 0
CLASSIFICATION_TYPE = U
NORAD_CAT_ID   = 67113
ELEMENT_SET_NO = 999
REV_AT_EPOCH   = 442
BSTAR          = .71377364E-4
MEAN_MOTION_DOT = .3846E-4
MEAN_MOTION_DDOT = 0

CCSDS_OMM_VERS = 2.0
CREATION_DATE  = 
ORIGINATOR     = 

OBJECT_NAME    = STARLINK-36180
OBJECT_ID      = 2025-299N
CENTER_NAME    = EARTH
REF_FRAME      = TEME
TIME_SYSTEM    = UTC
MEAN_ELEMENT_THEORY = SGP/SGP4

EPOCH          = 2026-01-04T22:00:01.999584
MEAN_MOTION    = 15.50569312
ECCENTRICITY   = .00016696
INCLINATION    = 42.9996
RA_OF_ASC_NODE = 176.3627
ARG_OF_PERICENTER = 272.2558
MEAN_ANOMALY   = 306.0778

EPHEMERIS_TYPE = 0
CLASSIFICATION_TYPE = U
NORAD_CAT_ID   = 67114
ELEMENT_SET_NO = 999
REV_AT_EPOCH   = 453
BSTAR          = -.73387224E-4
MEAN_MOTION_DOT = -.4643E-4
MEAN_MOTION_DDOT = 0

CCSDS_OMM_VERS = 2.0
CREATION_DATE  = 
ORIGINATOR     = 

OBJECT_NAME    = STARLINK-35892
OBJECT_ID      = 2025-299P
CENTER_NAME    = EARTH
REF_FRAME      = TEME
TIME_SYSTEM    = UTC
MEAN_ELEMENT_THEORY = SGP/SGP4

EPOCH          = 2026-01-04T22:00:01.999584
MEAN_MOTION    = 15.49284583
ECCENTRICITY   = .00014113
INCLINATION    = 42.9997
RA_OF_ASC_NODE = 176.3596
ARG_OF_PERICENTER = 271.0561
MEAN_ANOMALY   = 308.5107

EPHEMERIS_TYPE = 0
CLASSIFICATION_TYPE = U
NORAD_CAT_ID   = 67115
ELEMENT_SET_NO = 999
REV_AT_EPOCH   = 442
BSTAR          = -.4130651E-1
MEAN_MOTION_DOT = -.205948E-1
MEAN_MOTION_DDOT = 0

CCSDS_OMM_VERS = 2.0
CREATION_DATE  = 
ORIGINATOR     = 

OBJECT_NAME    = STARLINK-35738
OBJECT_ID      = 2025-299Q
CENTER_NAME    = EARTH
REF_FRAME      = TEME
TIME_SYSTEM    = UTC
MEAN_ELEMENT_THEORY = SGP/SGP4

EPOCH          = 2026-01-04T22:00:01.999584
MEAN_MOTION    = 15.50575831
ECCENTRICITY   = .00016044
INCLINATION    = 42.9994
RA_OF_ASC_NODE = 176.3536
ARG_OF_PERICENTER = 272.1910
MEAN_ANOMALY   = 309.9635

EPHEMERIS_TYPE = 0
CLASSIFICATION_TYPE = U
NORAD_CAT_ID   = 67116
ELEMENT_SET_NO = 999
REV_AT_EPOCH   = 442
BSTAR          = .4382586E-3
MEAN_MOTION_DOT = .2545E-3
MEAN_MOTION_DDOT = 0

CCSDS_OMM_VERS = 2.0
CREATION_DATE  = 
ORIGINATOR     = 

OBJECT_NAME    = STARLINK-35674
OBJECT_ID      = 2025-299R
CENTER_NAME    = EARTH
REF_FRAME      = TEME
TIME_SYSTEM    = UTC
MEAN_ELEMENT_THEORY = SGP/SGP4

EPOCH          = 2026-01-04T22:00:01.999584
MEAN_MOTION    = 15.42677233
ECCENTRICITY   = .00012549
INCLINATION    = 43.0003
RA_OF_ASC_NODE = 176.4121
ARG_OF_PERICENTER = 276.1597
MEAN_ANOMALY   = 281.7482

EPHEMERIS_TYPE = 0
CLASSIFICATION_TYPE = U
NORAD_CAT_ID   = 67117
ELEMENT_SET_NO = 999
REV_AT_EPOCH   = 432
BSTAR          = -.60135254E-1
MEAN_MOTION_DOT = -.238702E-1
MEAN_MOTION_DDOT = 0

CCSDS_OMM_VERS = 2.0
CREATION_DATE  = 
ORIGINATOR     = 

OBJECT_NAME    = STARLINK-35701
OBJECT_ID      = 2025-299S
CENTER_NAME    = EARTH
REF_FRAME      = TEME
TIME_SYSTEM    = UTC
MEAN_ELEMENT_THEORY = SGP/SGP4

EPOCH          = 2026-01-04T22:00:01.999584
MEAN_MOTION    = 15.50582282
ECCENTRICITY   = .00015255
INCLINATION    = 42.9995
RA_OF_ASC_NODE = 176.3439
ARG_OF_PERICENTER = 278.2945
MEAN_ANOMALY   = 307.7052

EPHEMERIS_TYPE = 0
CLASSIFICATION_TYPE = U
NORAD_CAT_ID   = 67118
ELEMENT_SET_NO = 999
REV_AT_EPOCH   = 448
BSTAR          = -.46555627E-3
MEAN_MOTION_DOT = -.27561E-3
MEAN_MOTION_DDOT = 0

CCSDS_OMM_VERS = 2.0
CREATION_DATE  = 
ORIGINATOR     = 

OBJECT_NAME    = STARLINK-36179
OBJECT_ID      = 2025-299T
CENTER_NAME    = EARTH
REF_FRAME      = TEME
TIME_SYSTEM    = UTC
MEAN_ELEMENT_THEORY = SGP/SGP4

EPOCH          = 2026-01-04T22:00:01.999584
MEAN_MOTION    = 15.43778643
ECCENTRICITY   = .00012948
INCLINATION    = 43.0003
RA_OF_ASC_NODE = 176.3857
ARG_OF_PERICENTER = 248.6224
MEAN_ANOMALY   = 320.1451

EPHEMERIS_TYPE = 0
CLASSIFICATION_TYPE = U
NORAD_CAT_ID   = 67119
ELEMENT_SET_NO = 999
REV_AT_EPOCH   = 453
BSTAR          = -.6345066E-1
MEAN_MOTION_DOT = -.2587687E-1
MEAN_MOTION_DDOT = 0

CCSDS_OMM_VERS = 2.0
CREATION_DATE  = 
ORIGINATOR     = 

OBJECT_NAME    = STARLINK-36217
OBJECT_ID      = 2025-299U
CENTER_NAME    = EARTH
REF_FRAME      = TEME
TIME_SYSTEM    = UTC
MEAN_ELEMENT_THEORY = SGP/SGP4

EPOCH          = 2026-01-04T22:00:01.999584
MEAN_MOTION    = 15.50561529
ECCENTRICITY   = .00015758
INCLINATION    = 42.9996
RA_OF_ASC_NODE = 176.3388
ARG_OF_PERICENTER = 271.2253
MEAN_ANOMALY   = 316.6938

EPHEMERIS_TYPE = 0
CLASSIFICATION_TYPE = U
NORAD_CAT_ID   = 67120
ELEMENT_SET_NO = 999
REV_AT_EPOCH   = 453
BSTAR          = .17090871E-3
MEAN_MOTION_DOT = .9691E-4
MEAN_MOTION_DDOT = 0

CCSDS_OMM_VERS = 2.0
CREATION_DATE  = 
ORIGINATOR     = 

OBJECT_NAME    = STARLINK-36124
OBJECT_ID      = 2025-299V
CENTER_NAME    = EARTH
REF_FRAME      = TEME
TIME_SYSTEM    = UTC
MEAN_ELEMENT_THEORY = SGP/SGP4

EPOCH          = 2026-01-04T22:00:01.999584
MEAN_MOTION    = 15.50548948
ECCENTRICITY   = .00015386
INCLINATION    = 42.9996
RA_OF_ASC_NODE = 176.3243
ARG_OF_PERICENTER = 278.3496
MEAN_ANOMALY   = 315.3229

EPHEMERIS_TYPE = 0
CLASSIFICATION_TYPE = U
NORAD_CAT_ID   = 67121
ELEMENT_SET_NO = 999
REV_AT_EPOCH   = 453
BSTAR          = .59542716E-3
MEAN_MOTION_DOT = .34707E-3
MEAN_MOTION_DDOT = 0

